{"type":"FeatureCollection","features":[{"type": "Feature", "id": "DWeGOy2U0tjdEAHeC_fLbDjMhAk=", "properties": {"ref": "f3619ac841a44165a4157646a00a7200", "@spider": "gangareyenation_dac", "addr:street": "Gangar Opticians Pvt Ltd, Shop No. 38, Shreeji Arcade, Anand Mahal Rd, Adajan, ", "addr:city": "Surat", "addr:state": "Gujarat", "addr:postcode": "395009", "addr:country": "India", "phones": {"Store": ["8108170352"]}, "email": {"Customer Service": ["info@gangar.in"]}, "website": "https://eyebooknow.in/INWST00175/", "operatingHours": {"Store": "{\"mon\":[\"10:30 AM - 09:00 PM\"],\"tue\":[\"10:30 AM - 09:00 PM\"],\"wed\":[\"10:30 AM - 09:00 PM\"],\"thu\":[\"10:30 AM - 09:00 PM\"],\"fri\":[\"10:30 AM - 09:00 PM\"],\"sat\":[\"10:30 AM - 09:00 PM\"],\"sun\":[\"10:30 AM - 09:00 PM\"]}"}, "chain_id": "23945", "chain_name": "Gangar Eyenation"}, "geometry": {"type": "Point", "coordinates": [72.798495, 21.1939476]}},
{"type": "Feature", "id": "HXeqGniwBvCp4ItSeekL-6IP6Ow=", "properties": {"ref": "4a28cd2186d048b69a3b378e8a6884da", "@spider": "gangareyenation_dac", "addr:street": "Gangar Opticians Pvt Ltd, 1, Acharya Vinobha Bhave Rd, Sec -8, Sector 7, Airoli,", "addr:city": "Navi Mumbai", "addr:state": "Maharashtra", "addr:postcode": "400706", "addr:country": "India", "phones": {"Store": ["9594999623"]}, "email": {"Customer Service": ["info@gangar.in"]}, "website": "https://eyebooknow.in/INWST00186/", "operatingHours": {"Store": "{\"mon\":[\"10:30 AM - 09:00 PM\"],\"tue\":[\"10:30 AM - 09:00 PM\"],\"wed\":[\"10:30 AM - 09:00 PM\"],\"thu\":[\"10:30 AM - 09:00 PM\"],\"fri\":[\"10:30 AM - 09:00 PM\"],\"sat\":[\"10:30 AM - 09:00 PM\"],\"sun\":[\"10:30 AM - 09:00 PM\"]}"}, "chain_id": "23945", "chain_name": "Gangar Eyenation"}, "geometry": {"type": "Point", "coordinates": [72.995246, 19.147646]}},
{"type": "Feature", "id": "PkrG45ai3DD84to5ZCopDSf0Mx8=", "properties": {"ref": "1b6c8eeec96b4feba10fa9da48d03995", "@spider": "gangareyenation_dac", "addr:street": "Gangar Opticians Pvt Ltd, Siddharth Complex, Shop No. 42/43/44, RC Dutt Rd, beside Hotel Express Towers, ", "addr:city": "Alkapuri", "addr:state": "Gujarat", "addr:postcode": "390007", "addr:country": "India", "phones": {"Store": ["8108170356"]}, "email": {"Customer Service": ["info@gangar.in"]}, "website": "https://eyebooknow.in/INWST00193/", "operatingHours": {"Store": "{\"mon\":[\"10:30 AM - 09:00 PM\"],\"tue\":[\"10:30 AM - 09:00 PM\"],\"wed\":[\"10:30 AM - 09:00 PM\"],\"thu\":[\"10:30 AM - 09:00 PM\"],\"fri\":[\"10:30 AM - 09:00 PM\"],\"sat\":[\"10:30 AM - 09:00 PM\"],\"sun\":[\"10:30 AM - 09:00 PM\"]}"}, "chain_id": "23945", "chain_name": "Gangar Eyenation"}, "geometry": {"type": "Point", "coordinates": [73.169511, 22.310267]}},
{"type": "Feature", "id": "sozlT3TA56e37eQiRoJtSLcj68Y=", "properties": {"ref": "f8794f4952694006a008c2a2401b25d9", "@spider": "gangareyenation_dac", "addr:street": "Gangar Opticians Pvt Ltd sawant arcade, 1 & 2, Shiv Mandir Road, Vadavali, Ambernath,", "addr:city": "Thane", "addr:state": "Maharshtra", "addr:postcode": "421501", "addr:country": "India", "phones": {"Store": ["8108999362"]}, "email": {"Customer Service": ["info@gangar.in"]}, "website": "https://eyebooknow.in/INWST00185/", "operatingHours": {"Store": "{\"mon\":[\"10:30 AM - 09:00 PM\"],\"tue\":[\"10:30 AM - 09:00 PM\"],\"wed\":[\"10:30 AM - 09:00 PM\"],\"thu\":[\"10:30 AM - 09:00 PM\"],\"fri\":[\"10:30 AM - 09:00 PM\"],\"sat\":[\"10:30 AM - 09:00 PM\"],\"sun\":[\"10:30 AM - 09:00 PM\"]}"}, "chain_id": "23945", "chain_name": "Gangar Eyenation"}, "geometry": {"type": "Point", "coordinates": [73.185811, 19.207743]}},
{"type": "Feature", "id": "yiL2KJ67KYn-MJLl04hBrn_0kNs=", "properties": {"ref": "bb4b2ed8709f4afebdf1916f9d658f05", "@spider": "gangareyenation_dac", "addr:street": "Gangar Opticians Pvt Ltd, Shop nos 2 and 3 Krishna Shilp Building, Anand - Vidyanagar Rd, near Triveni Complex, ", "addr:city": "Anand", "addr:state": "Gujarat", "addr:postcode": "388001", "addr:country": "India", "phones": {"Store": ["8108170350"]}, "email": {"Customer Service": ["info@gangar.in"]}, "website": "https://eyebooknow.in/INWST00139/", "operatingHours": {"Store": "{\"mon\":[\"10:00 AM - 08:30 PM\"],\"tue\":[\"10:00 AM - 08:30 PM\"],\"wed\":[\"10:00 AM - 08:30 PM\"],\"thu\":[\"10:00 AM - 08:30 PM\"],\"fri\":[\"10:00 AM - 08:30 PM\"],\"sat\":[\"10:00 AM - 08:30 PM\"],\"sun\":[\"10:00 AM - 08:30 PM\"]}"}, "chain_id": "23945", "chain_name": "Gangar Eyenation"}, "geometry": {"type": "Point", "coordinates": [72.9340963, 22.5507978]}},
{"type": "Feature", "id": "TpPQG1rbkNIOeWV7odKf0k74E6Y=", "properties": {"ref": "69c496b1bcd44e5f831a4ba514c9fa97", "@spider": "gangareyenation_dac", "addr:street": "Gangar Opticians Pvt Ltd, Vedas Center, Shop no - 3, Ground floor, DP Rd, near Shiv Sagar Hotel, ", "addr:city": "Pune", "addr:state": "Maharashtra", "addr:postcode": "411007", "addr:country": "India", "phones": {"Store": ["8108999362"]}, "email": {"Customer Service": ["info@gangar.in"]}, "website": "https://eyebooknow.in/INWST00169/", "operatingHours": {"Store": "{\"mon\":[\"10:30 AM - 09:00 PM\"],\"tue\":[\"10:30 AM - 09:00 PM\"],\"wed\":[\"10:30 AM - 09:00 PM\"],\"thu\":[\"10:30 AM - 09:00 PM\"],\"fri\":[\"10:30 AM - 09:00 PM\"],\"sat\":[\"10:30 AM - 09:00 PM\"],\"sun\":[\"10:30 AM - 09:00 PM\"]}"}, "chain_id": "23945", "chain_name": "Gangar Eyenation"}, "geometry": {"type": "Point", "coordinates": [73.805879, 18.560364]}},
{"type": "Feature", "id": "oXHR_9VNh-XVwvqfs68f8CxYJXQ=", "properties": {"ref": "ccef9bd3cac84ab4b92d222b3eaedfbb", "@spider": "gangareyenation_dac", "addr:street": "Gangar Opticians Pvt Ltd, II, Joy’s Adinath Tower, Lal Bahadur Shastri Marg, Bhandup West,", "addr:city": "Mumbai", "addr:state": "Maharashtra", "addr:postcode": "400078", "addr:country": "India", "phones": {"Store": ["9594999644"]}, "email": {"Customer Service": ["info@gangar.in"]}, "website": "https://eyebooknow.in/INWST00152/", "operatingHours": {"Store": "{\"mon\":[\"10:30 AM - 09:00 PM\"],\"tue\":[\"10:30 AM - 09:00 PM\"],\"wed\":[\"10:30 AM - 09:00 PM\"],\"thu\":[\"10:30 AM - 09:00 PM\"],\"fri\":[\"10:30 AM - 09:00 PM\"],\"sat\":[\"10:30 AM - 09:00 PM\"],\"sun\":[\"10:30 AM - 09:00 PM\"]}"}, "chain_id": "23945", "chain_name": "Gangar Eyenation"}, "geometry": {"type": "Point", "coordinates": [72.934713, 19.144921]}},
{"type": "Feature", "id": "9pYLop4faaBw3yIt3LPojP5FEZE=", "properties": {"ref": "0694f5ff58794080bc04985cba2f46fd", "@spider": "gangareyenation_dac", "addr:street": "Gangar Opticians Pvt Ltd, Shop No. 5 & 6,Shree Ravechi Building, Hospital Rd,", "addr:city": "Bhuj", "addr:state": "Gujarat", "addr:postcode": "370001", "addr:country": "India", "phones": {"Store": ["8108170361"]}, "email": {"Customer Service": ["info@gangar.in"]}, "website": "https://eyebooknow.in/INWST00140/", "operatingHours": {"Store": "{\"mon\":[\"10:30 AM - 09:00 PM\"],\"tue\":[\"10:30 AM - 09:00 PM\"],\"wed\":[\"10:30 AM - 09:00 PM\"],\"thu\":[\"10:30 AM - 09:00 PM\"],\"fri\":[\"10:30 AM - 09:00 PM\"],\"sat\":[\"10:30 AM - 09:00 PM\"],\"sun\":[\"10:30 AM - 09:00 PM\"]}"}, "chain_id": "23945", "chain_name": "Gangar Eyenation"}, "geometry": {"type": "Point", "coordinates": [69.67330545, 23.2443713]}},
{"type": "Feature", "id": "4fC9E5EFlRy4vcA4zn2OfIcKLPI=", "properties": {"ref": "a9db5f1e4c554c449ba2971f5e5fae42", "@spider": "gangareyenation_dac", "addr:street": "Gangar Opticians Pvt Ltd, Shop No. 9, Premier Tower Solitaire, World Shatrunjay Road, Phase 1, Bibwewadi, ", "addr:city": "Pune", "addr:state": "Maharashtra", "addr:postcode": "411037", "addr:country": "India", "phones": {"Store": ["8108999253"]}, "email": {"Customer Service": ["info@gangar.in"]}, "website": "https://eyebooknow.in/INWST00168/", "operatingHours": {"Store": "{\"mon\":[\"10:00 AM - 09:00 PM\"],\"tue\":[\"10:00 AM - 09:00 PM\"],\"wed\":[\"10:00 AM - 09:00 PM\"],\"thu\":[\"10:00 AM - 09:00 PM\"],\"fri\":[\"10:00 AM - 09:00 PM\"],\"sat\":[\"10:00 AM - 09:00 PM\"],\"sun\":[\"10:00 AM - 09:00 PM\"]}"}, "chain_id": "23945", "chain_name": "Gangar Eyenation"}, "geometry": {"type": "Point", "coordinates": [73.8725078, 18.4801834]}},
{"type": "Feature", "id": "P5JXbhksbBCCjSrN4WNcUke6yzU=", "properties": {"ref": "2e86562da01c4030b57c391f601fbd8f", "@spider": "gangareyenation_dac", "addr:street": "Gangar Opticians Pvt Ltd, Harmony Plaza, P – 02 / 35 & 36, Boisar - Tarapur Rd, ", "addr:city": "Mumbai", "addr:state": "Maharashtra", "addr:postcode": "401501", "addr:country": "India", "phones": {"Store": ["8425999656"]}, "email": {"Customer Service": ["info@ganagr.in"]}, "website": "https://eyebooknow.in/INWST00190/", "operatingHours": {"Store": "{\"mon\":[\"10:30 AM - 09:00 PM\"],\"tue\":[\"10:30 AM - 09:00 PM\"],\"wed\":[\"10:30 AM - 09:00 PM\"],\"thu\":[\"10:30 AM - 09:00 PM\"],\"fri\":[\"10:30 AM - 09:00 PM\"],\"sat\":[\"10:30 AM - 09:00 PM\"],\"sun\":[\"10:30 AM - 09:00 PM\"]}"}, "chain_id": "23945", "chain_name": "Gangar Eyenation"}, "geometry": {"type": "Point", "coordinates": [72.757264, 19.800887]}},
{"type": "Feature", "id": "T6Fizf32XjKdoSQlPbrMRDpEecQ=", "properties": {"ref": "901770ce0ccb481cbc39de6a2a5a2cc2", "@spider": "gangareyenation_dac", "addr:street": "Gangar Opticians Pvt Ltd, Shop No. 1 & Shop No. 101, Ground + First Floor, Neel Rekha, Maharashtra Nagar, L. T. Road, Borivali ( West)", "addr:city": "Mumbai", "addr:state": "Maharashtra", "addr:postcode": "400092", "addr:country": "India", "phones": {"Store": ["9594999632"]}, "email": {"Customer Service": ["info@gangar.in"]}, "website": "https://eyebooknow.in/INWST00146/", "operatingHours": {"Store": "{\"mon\":[\"10:30 AM - 09:00 PM\"],\"tue\":[\"10:30 AM - 09:00 PM\"],\"wed\":[\"10:30 AM - 09:00 PM\"],\"thu\":[\"10:30 AM - 09:00 PM\"],\"fri\":[\"10:30 AM - 09:00 PM\"],\"sat\":[\"10:30 AM - 09:00 PM\"],\"sun\":[\"10:30 AM - 09:00 PM\"]}"}, "chain_id": "23945", "chain_name": "Gangar Eyenation"}, "geometry": {"type": "Point", "coordinates": [72.85170683184481, 19.22878346145431]}},
{"type": "Feature", "id": "8_TpzBmIf2zgpvcK8IMM_JxGQRw=", "properties": {"ref": "f878cbfef0944e9496d0b945c3bd62fa", "@spider": "gangareyenation_dac", "addr:street": "Gangar Opticians Pvt Ltd, 48, Court Chambers Opposite Moksh Plaza, Swami Vivekananda Rd, Mhatre Wadi, Borivali West, ", "addr:city": "Mumbai", "addr:state": "Maharashtra", "addr:postcode": "400092", "addr:country": "India", "phones": {"Store": ["8422916032"]}, "email": {"Customer Service": ["info@gangar.in"]}, "website": "https://eyebooknow.in/INWST00147/", "operatingHours": {"Store": "{\"mon\":[\"10:00 AM - 08:30 PM\"],\"tue\":[\"10:00 AM - 08:30 PM\"],\"wed\":[\"10:00 AM - 08:30 PM\"],\"thu\":[\"10:00 AM - 08:30 PM\"],\"fri\":[\"10:00 AM - 08:30 PM\"],\"sat\":[\"10:00 AM - 08:30 PM\"],\"sun\":[\"10:00 AM - 08:30 PM\"]}"}, "chain_id": "23945", "chain_name": "Gangar Eyenation"}, "geometry": {"type": "Point", "coordinates": [72.855172, 19.22597]}},
{"type": "Feature", "id": "cRd5NiFlAzqbBdENoW_hI6YMXEU=", "properties": {"ref": "7d90cb8632354f2892f85b47a0a9b4fa", "@spider": "gangareyenation_dac", "addr:street": "Gangar Opticians Pvt Ltd, Shop No. 14, Rajhans Hotel Bldg, Narayan Gajanan Acharya Marg, opp. Railway Station, Chembur", "addr:city": "Mumbai", "addr:state": "Maharashtra", "addr:postcode": "400071", "addr:country": "India", "phones": {"Store": ["8108999709"]}, "email": {"Customer Service": ["info@gangar.in"]}, "website": "https://eyebooknow.in/INWST00156/", "operatingHours": {"Store": "{\"mon\":[\"10:00 AM - 09:00 PM\"],\"tue\":[\"10:00 AM - 09:00 PM\"],\"wed\":[\"10:00 AM - 09:00 PM\"],\"thu\":[\"10:00 AM - 09:00 PM\"],\"fri\":[\"10:00 AM - 09:00 PM\"],\"sat\":[\"10:00 AM - 09:00 PM\"],\"sun\":[\"09:30 AM - 09:00 PM\"]}"}, "chain_id": "23945", "chain_name": "Gangar Eyenation"}, "geometry": {"type": "Point", "coordinates": [72.900099, 19.062313]}},
{"type": "Feature", "id": "Pg_VOkJwTwrAEUF-iqNtOFbOc4Y=", "properties": {"ref": "dd9cfe467faa4ad89d0b8458fa4a611f", "@spider": "gangareyenation_dac", "addr:street": "Gangar Opticians Pvt Ltd, Pritivardhan Plaza, Karad - Chiplun Rd, Kavitali,", "addr:city": "Chiplun", "addr:state": "Maharashtra", "addr:postcode": "415605", "addr:country": "India", "phones": {"Store": ["8108106135"]}, "email": {"Customer Service": ["info@gangar.in"]}, "website": "https://eyebooknow.in/INWST00128/", "operatingHours": {"Store": "{\"mon\":[\"10:30 AM - 09:00 PM\"],\"tue\":[\"10:30 AM - 09:00 PM\"],\"wed\":[\"10:30 AM - 09:00 PM\"],\"thu\":[\"10:30 AM - 09:00 PM\"],\"fri\":[\"10:30 AM - 09:00 PM\"],\"sat\":[\"10:30 AM - 09:00 PM\"],\"sun\":[\"10:30 AM - 09:00 PM\"]}"}, "chain_id": "23945", "chain_name": "Gangar Eyenation"}, "geometry": {"type": "Point", "coordinates": [73.516991, 17.530159]}},
{"type": "Feature", "id": "fk5DFOSU9rlwCk9xWe7BokckyUY=", "properties": {"ref": "f42b4d7c94f94c839a6ef5e5fd151f12", "@spider": "gangareyenation_dac", "addr:street": "Gangar Opticians Pvt Ltd Empire Mahal, 806, Dr Baba Saheb Ambedkar Rd, Dadar TT, Dadar East, Circle, ", "addr:city": "Mumbai", "addr:state": "Maharashtra", "addr:postcode": "400014", "addr:country": "India", "phones": {"Store": ["8108899939"]}, "email": {"Customer Service": ["info@gangar.in"]}, "website": "https://eyebooknow.in/INWST00145/", "operatingHours": {"Store": "{\"mon\":[\"10:00 AM - 08:45 PM\"],\"tue\":[\"10:00 AM - 08:45 PM\"],\"wed\":[\"10:00 AM - 08:45 PM\"],\"thu\":[\"10:00 AM - 08:45 PM\"],\"fri\":[\"10:00 AM - 08:45 PM\"],\"sat\":[\"10:00 AM - 08:45 PM\"],\"sun\":[\"10:00 AM - 08:45 PM\"]}"}, "chain_id": "23945", "chain_name": "Gangar Eyenation"}, "geometry": {"type": "Point", "coordinates": [72.848466, 19.017598]}},
{"type": "Feature", "id": "e4g3qAEnF1P24hZMv5XQeNbVB1I=", "properties": {"ref": "29dfd9fa0f7446c6a9963014d392cb48", "@spider": "gangareyenation_dac", "addr:street": "Gangar Opticians Pvt Ltd, Shop No. 5 & 6, Chirag CHS, Phadke Rd, next to New Modern Cafe, Dombivli East,", "addr:city": "Thane", "addr:state": "Maharashtra", "addr:postcode": "421201", "addr:country": "India", "phones": {"Store": ["9594999624"]}, "email": {"Customer Service": ["info@gangar.in"]}, "website": "https://eyebooknow.in/INWST00183/", "operatingHours": {"Store": "{\"mon\":[\"10:00 AM - 09:30 PM\"],\"tue\":[\"10:00 AM - 09:30 PM\"],\"wed\":[\"10:00 AM - 09:30 PM\"],\"thu\":[\"10:00 AM - 09:30 PM\"],\"fri\":[\"10:00 AM - 09:30 PM\"],\"sat\":[\"10:00 AM - 09:30 PM\"],\"sun\":[\"10:00 AM - 09:30 PM\"]}"}, "chain_id": "23945", "chain_name": "Gangar Eyenation"}, "geometry": {"type": "Point", "coordinates": [73.090292, 19.219347]}},
{"type": "Feature", "id": "on1pP-YDE0tXMO-UzCSws_BtSNg=", "properties": {"ref": "7d49f757a7fd40a9966e409d0cd7f607", "@spider": "gangareyenation_dac", "addr:street": "Gangar Opticians Pvt Ltd Shop No. 30 & 31, Ground Floor, Xperia Mall, Kalyan - Shilphata Rd, Palava City,", "addr:city": "Mumbai", "addr:state": "Maharashtra", "addr:postcode": "421204", "addr:country": "India", "phones": {"Store": ["8422911605"]}, "email": {"Customer Service": ["info@gangar.in"]}, "website": "https://eyebooknow.in/INWST00184/", "operatingHours": {"Store": "{\"mon\":[\"11:00 AM - 09:30 PM\"],\"tue\":[\"11:00 AM - 09:30 PM\"],\"wed\":[\"11:00 AM - 09:30 PM\"],\"thu\":[\"11:00 AM - 09:30 PM\"],\"fri\":[\"11:00 AM - 09:30 PM\"],\"sat\":[\"11:00 AM - 09:30 PM\"],\"sun\":[\"11:00 AM - 09:30 PM\"]}"}, "chain_id": "23945", "chain_name": "Gangar Eyenation"}, "geometry": {"type": "Point", "coordinates": [73.075368, 19.165548]}},
{"type": "Feature", "id": "a_xfcBlallE6cAcbvk2jJsQCkl4=", "properties": {"ref": "1d80ed1dc29f43bb9b46279e0da1bfab", "@spider": "gangareyenation_dac", "addr:street": "Gangar Opticians Pvt Ltd,  Plot No 331 & 332, Ward No 12B, Ajanta Shelter, Shop No.14 & 15, near Honest Restaurant, ", "addr:city": "Gandhidham Kutch Gujarat", "addr:state": "Gujarat", "addr:postcode": "370201", "addr:country": "India", "phones": {"Store": ["9594999654"]}, "email": {"Customer Service": ["info@gangar.in"]}, "website": "http://www.gangareyenation.com/", "operatingHours": {"Store": "{\"mon\":[\"10:30 AM - 09:00 PM\"],\"tue\":[\"10:30 AM - 09:00 PM\"],\"wed\":[\"10:30 AM - 09:00 PM\"],\"thu\":[\"10:30 AM - 09:00 PM\"],\"fri\":[\"10:30 AM - 09:00 PM\"],\"sat\":[\"10:30 AM - 09:00 PM\"],\"sun\":[\"10:30 AM - 09:00 PM\"]}"}, "chain_id": "23945", "chain_name": "Gangar Eyenation"}, "geometry": {"type": "Point", "coordinates": [70.13806443594456, 23.066451146511277]}},
{"type": "Feature", "id": "68uWz2J7Oyy_UxwFGDmDRmWidfc=", "properties": {"ref": "a05ebbfaad874ec4bdaab96ebe7f39dd", "@spider": "gangareyenation_dac", "addr:street": "Gangar Opticians Pvt Ltd Shop No 34, Capital Shopping Mall, Infocity, Supermall,", "addr:city": "Gandhinagar", "addr:state": "Gujarat", "addr:postcode": "382009", "addr:country": "India", "phones": {"Store": ["8108170351"]}, "email": {"Customer Service": ["info@gangar.in"]}, "website": "https://eyebooknow.in/INWST00141/", "operatingHours": {"Store": "{\"mon\":[\"10:30 AM - 09:00 PM\"],\"tue\":[\"10:30 AM - 09:00 PM\"],\"wed\":[\"10:30 AM - 09:00 PM\"],\"thu\":[\"10:30 AM - 09:00 PM\"],\"fri\":[\"10:30 AM - 09:00 PM\"],\"sat\":[\"10:30 AM - 09:00 PM\"],\"sun\":[\"10:30 AM - 09:00 PM\"]}"}, "chain_id": "23945", "chain_name": "Gangar Eyenation"}, "geometry": {"type": "Point", "coordinates": [72.633945, 23.196009]}},
{"type": "Feature", "id": "tapzk6iA3-z8oENwNRdewnPMHn8=", "properties": {"ref": "400f070d213a4dc09b85cf5420f72fe2", "@spider": "gangareyenation_dac", "addr:street": "Gangar Opticians Pvt Ltd,  Shop No. 01, Ground Floor,Copper Annexe, Pandit Nehru Marg,", "addr:city": "Jamnagar", "addr:state": "Gujarat", "addr:postcode": "361008", "addr:country": "India", "phones": {"Store": ["8108170355"]}, "email": {"Customer Service": ["info@gangar.in"]}, "website": "https://eyebooknow.in/INWST00142/", "operatingHours": {"Store": "{\"mon\":[\"10:30 AM - 09:00 PM\"],\"tue\":[\"10:30 AM - 09:00 PM\"],\"wed\":[\"10:30 AM - 09:00 PM\"],\"thu\":[\"10:30 AM - 09:00 PM\"],\"fri\":[\"10:30 AM - 09:00 PM\"],\"sat\":[\"10:30 AM - 09:00 PM\"],\"sun\":[\"10:30 AM - 09:00 PM\"]}"}, "chain_id": "23945", "chain_name": "Gangar Eyenation"}, "geometry": {"type": "Point", "coordinates": [70.058762, 22.482553]}},
{"type": "Feature", "id": "GRx3dfmOhI0fPvgTa3gb9MaV6Zs=", "properties": {"ref": "0bfb6cc5431e4b71834cdbd5fff01001", "@spider": "gangareyenation_dac", "addr:street": "Gangar Opticians Pvt Ltd, Vallabh Kutir, Chatrapati Shivaji Maharaj Chowk, opp. Krishna Cinema, Kalyan West, ", "addr:city": "Thane", "addr:state": "Maharashtra", "addr:postcode": "421301", "addr:country": "India", "phones": {"Store": ["9594999638"]}, "email": {"Customer Service": ["info@gangar.in"]}, "website": "https://eyebooknow.in/INWST00178/", "operatingHours": {"Store": "{\"mon\":[\"10:30 AM - 09:00 PM\"],\"tue\":[\"10:30 AM - 09:00 PM\"],\"wed\":[\"10:30 AM - 09:00 PM\"],\"thu\":[\"10:30 AM - 09:00 PM\"],\"fri\":[\"10:30 AM - 09:00 PM\"],\"sat\":[\"10:30 AM - 09:00 PM\"],\"sun\":[\"10:30 AM - 09:00 PM\"]}"}, "chain_id": "23945", "chain_name": "Gangar Eyenation"}, "geometry": {"type": "Point", "coordinates": [73.128881, 19.018303]}},
{"type": "Feature", "id": "jmiCaonvCaZRrKG62EOlWBXYiLA=", "properties": {"ref": "3b6962b9df8547cdb1cdc7032facf754", "@spider": "gangareyenation_dac", "addr:street": "Gangar Opticians Pvt Ltd, Shop No 15 & 16, Shelar park Khadakpada, Kalyan West,", "addr:city": "Thane", "addr:state": "Maharashtra", "addr:postcode": "421301", "addr:country": "India", "phones": {"Store": ["8108999860"]}, "email": {"Customer Service": ["info@gangar.in"]}, "website": "https://eyebooknow.in/INWST00179/", "operatingHours": {"Store": "{\"mon\":[\"10:30 AM - 09:30 PM\"],\"tue\":[\"10:30 AM - 09:30 PM\"],\"wed\":[\"10:30 AM - 09:30 PM\"],\"thu\":[\"10:30 AM - 09:30 PM\"],\"fri\":[\"10:30 AM - 09:30 PM\"],\"sat\":[\"10:30 AM - 09:30 PM\"],\"sun\":[\"10:30 AM - 09:30 PM\"]}"}, "chain_id": "23945", "chain_name": "Gangar Eyenation"}, "geometry": {"type": "Point", "coordinates": [73.138097, 19.253607]}},
{"type": "Feature", "id": "sJVcvoNYK0x6L7E4EVGENxyai5w=", "properties": {"ref": "d42f0259de214bfeb45722fb080abdc1", "@spider": "gangareyenation_dac", "addr:street": "Gangar Opticians Pvt Ltd, 4 Centrium Mall, Akurli Rd, Lokhandwala Twp, Kandivali East, ", "addr:city": "Mumbai", "addr:state": "Maharashtra", "addr:postcode": "400101", "addr:country": "India", "phones": {"Store": ["9594999639"]}, "email": {"Customer Service": ["info@gangar.in"]}, "website": "https://eyebooknow.in/INWST00149/", "operatingHours": {"Store": "{\"mon\":[\"10:30 AM - 09:00 PM\"],\"tue\":[\"10:30 AM - 09:00 PM\"],\"wed\":[\"10:30 AM - 09:00 PM\"],\"thu\":[\"10:30 AM - 09:00 PM\"],\"fri\":[\"10:30 AM - 09:00 PM\"],\"sat\":[\"10:30 AM - 09:00 PM\"],\"sun\":[\"10:30 AM - 09:00 PM\"]}"}, "chain_id": "23945", "chain_name": "Gangar Eyenation"}, "geometry": {"type": "Point", "coordinates": [72.872094, 19.196864]}},
{"type": "Feature", "id": "uFMiqldtP_ksGQrIytOdK-Aw4vQ=", "properties": {"ref": "2714f7c0b59a43468eb64ba8c62fcb19", "@spider": "gangareyenation_dac", "addr:street": "Gangar Opticians Pvt Ltd, Sushila Co-Op. Hsg. Soc. Ltd.,45 - 46/4, B- Wing, Gr. Floor, Karve Rd, Pune,", "addr:city": "Pune", "addr:state": "Maharashtra", "addr:postcode": "411004", "addr:country": "India", "phones": {"Store": ["8108999284"]}, "email": {"Customer Service": ["info@gangar.in"]}, "website": "https://eyebooknow.in/INWST00167/", "operatingHours": {"Store": "{\"mon\":[\"10:30 AM - 09:00 PM\"],\"tue\":[\"10:30 AM - 09:00 PM\"],\"wed\":[\"10:30 AM - 09:00 PM\"],\"thu\":[\"10:30 AM - 09:00 PM\"],\"fri\":[\"10:30 AM - 09:00 PM\"],\"sat\":[\"10:30 AM - 09:00 PM\"],\"sun\":[\"10:30 AM - 09:00 PM\"]}"}, "chain_id": "23945", "chain_name": "Gangar Eyenation"}, "geometry": {"type": "Point", "coordinates": [73.83085, 18.508668]}},
{"type": "Feature", "id": "BU_JIUWh8RCUlNCoIRcztYkIOZY=", "properties": {"ref": "6157991dbe7141969e0162ea13a2d639", "@spider": "gangareyenation_dac", "addr:street": "Gangar Opticians Pvt Ltd, Neel Siddhi Arcade, Plot No. E / 1A, opp.to Kendra Vihar Building colony, Sector 12, Kharghar, Navi Mumbai, ", "addr:city": "Navi Mumbai", "addr:state": "Maaharashtra", "addr:postcode": "410210", "addr:country": "India", "phones": {"Store": ["8108999350"]}, "email": {"Customer Service": ["info@gangar.in"]}, "website": "https://eyebooknow.in/INWST00165/", "operatingHours": {"Store": "{\"mon\":[\"10:00 AM - 08:30 PM\"],\"tue\":[\"10:00 AM - 08:30 PM\"],\"wed\":[\"10:00 AM - 08:30 PM\"],\"thu\":[\"10:00 AM - 08:30 PM\"],\"fri\":[\"10:00 AM - 08:30 PM\"],\"sat\":[\"10:00 AM - 08:30 PM\"],\"sun\":[\"10:00 AM - 08:30 PM\"]}"}, "chain_id": "23945", "chain_name": "Gangar Eyenation"}, "geometry": {"type": "Point", "coordinates": [73.065836, 19.038027]}},
{"type": "Feature", "id": "_lW7KLWCZ_6TlJZEiJsewc8gjIw=", "properties": {"ref": "fb4c4ac154b443f793d6376c99c6ae13", "@spider": "gangareyenation_dac", "addr:street": "Gangar Opticians Pvt Ltd, Ace Arcade 9th Lane, Rajarampuri Main Rd, Rajarampuri,", "addr:city": "Kolhapur", "addr:state": "Maharashtra", "addr:postcode": "416008", "addr:country": "India", "phones": {"Store": ["8108106134"]}, "email": {"Customer Service": ["info@gangar.in"]}, "website": "https://eyebooknow.in/INWST00143/", "operatingHours": {"Store": "{\"mon\":[\"10:30 AM - 09:00 PM\"],\"tue\":[\"10:30 AM - 09:00 PM\"],\"wed\":[\"10:30 AM - 09:00 PM\"],\"thu\":[\"10:30 AM - 09:00 PM\"],\"fri\":[\"10:30 AM - 09:00 PM\"],\"sat\":[\"10:30 AM - 09:00 PM\"],\"sun\":[\"10:30 AM - 09:00 PM\"]}"}, "chain_id": "23945", "chain_name": "Gangar Eyenation"}, "geometry": {"type": "Point", "coordinates": [74.242259, 16.693312]}},
{"type": "Feature", "id": "aLzZYzLE4gbKA7ZHW4XXhyiFkB8=", "properties": {"ref": "8d3685a6a76946c89c2d79b910d1c7f7", "@spider": "gangareyenation_dac", "addr:street": "Gangar Opticians Pvt Ltd, Plot No. 104, Nucon Classic Building, Shop no. 3, near D mart, Sector 7, Kopar Khairane, ", "addr:city": "Navi Mumbai", "addr:state": "Maharashtra", "addr:postcode": "400709", "addr:country": "India", "phones": {"Store": ["9594999648"]}, "email": {"Customer Service": ["info@gangar.in"]}, "website": "https://eyebooknow.in/INWST00164/", "operatingHours": {"Store": "{\"mon\":[\"10:00 AM - 09:30 PM\"],\"tue\":[\"10:00 AM - 09:30 PM\"],\"wed\":[\"10:00 AM - 09:30 PM\"],\"thu\":[\"10:00 AM - 09:30 PM\"],\"fri\":[\"10:00 AM - 09:30 PM\"],\"sat\":[\"10:00 AM - 09:30 PM\"],\"sun\":[\"10:00 AM - 09:30 PM\"]}"}, "chain_id": "23945", "chain_name": "Gangar Eyenation"}, "geometry": {"type": "Point", "coordinates": [73.004456, 19.101344]}},
{"type": "Feature", "id": "ghyG90FVtCknIB3yASb4gZpNVhc=", "properties": {"ref": "6c9ae72297734c78ad7b5aa629989bfd", "@spider": "gangareyenation_dac", "addr:street": "Gangar Opticians Pvt Ltd, Shop No 17, 18, 27 & 28, Municipal Shopping Complex, Latur-Nanded Hwy, ", "addr:city": "Latur", "addr:state": "Maharashtra", "addr:postcode": "413512", "addr:country": "India", "phones": {"Store": ["8108099827"]}, "email": {"Customer Service": ["info@gangar.in"]}, "website": "https://eyebooknow.in/INWST00130/", "operatingHours": {"Store": "{\"mon\":[\"10:30 AM - 09:00 PM\"],\"tue\":[\"10:30 AM - 09:00 PM\"],\"wed\":[\"10:30 AM - 09:00 PM\"],\"thu\":[\"10:30 AM - 09:00 PM\"],\"fri\":[\"10:30 AM - 09:00 PM\"],\"sat\":[\"10:30 AM - 09:00 PM\"],\"sun\":[\"10:30 AM - 09:00 PM\"]}"}, "chain_id": "23945", "chain_name": "Gangar Eyenation"}, "geometry": {"type": "Point", "coordinates": [76.5751489, 18.399052]}},
{"type": "Feature", "id": "BUGKsjErUNNA03XqJSPseBK8A4s=", "properties": {"ref": "e48df0b3a8d548e9b792003663525b1d", "@spider": "gangareyenation_dac", "addr:street": "Gangar Opticians Pvt Ltd, Ground Floor, Reliance Magnum Building Near Navtara Hotel Opp. KTC Bus Stand, Madel, ", "addr:city": "Margaon", "addr:state": "Goa", "addr:postcode": "403601", "addr:country": "India", "phones": {"Store": ["9594945381"]}, "email": {"Customer Service": ["info@gangar.in"]}, "website": "https://eyebooknow.in/INWST00129/", "operatingHours": {"Store": "{\"mon\":[\"09:30 AM - 06:30 PM\"],\"tue\":[\"09:30 AM - 06:30 PM\"],\"wed\":[\"09:30 AM - 06:30 PM\"],\"thu\":[\"09:30 AM - 06:30 PM\"],\"fri\":[\"09:30 AM - 06:30 PM\"],\"sat\":[\"09:30 AM - 06:30 PM\"],\"sun\":[\"09:30 AM - 06:30 PM\"]}"}, "chain_id": "23945", "chain_name": "Gangar Eyenation"}, "geometry": {"type": "Point", "coordinates": [73.9528833, 15.2872659]}},
{"type": "Feature", "id": "hZr_GszyNZBYP6kkjOkTVG6hIc4=", "properties": {"ref": "e0f966faaa26474caa059ef4809d11bd", "@spider": "gangareyenation_dac", "addr:street": "Gangar Opticians Pvt Ltd, F - 44, Lal Bahadur Shastri Marg, Kamani, Kurla West, Kurla, ", "addr:city": "Mumbai", "addr:state": "Maharashtra", "addr:postcode": "400070", "addr:country": "India", "phones": {"Store": ["8422943450"]}, "email": {"Customer Service": ["info@gangar.in"]}, "website": "https://eyebooknow.in/INWST00158/", "operatingHours": {"Store": "{\"mon\":[\"11:00 AM - 09:30 PM\"],\"tue\":[\"11:00 AM - 09:30 PM\"],\"wed\":[\"11:00 AM - 09:30 PM\"],\"thu\":[\"11:00 AM - 09:30 PM\"],\"fri\":[\"11:00 AM - 09:30 PM\"],\"sat\":[\"11:00 AM - 09:30 PM\"],\"sun\":[\"11:00 AM - 09:30 PM\"]}"}, "chain_id": "23945", "chain_name": "Gangar Eyenation"}, "geometry": {"type": "Point", "coordinates": [72.889291, 19.086305]}},
{"type": "Feature", "id": "R9aaREMsyxUDsGg2_PqvNfjDETk=", "properties": {"ref": "8ccb7964606745a0892506b3e384b4bb", "@spider": "gangareyenation_dac", "addr:street": "Gangar Opticians Pvt Ltd, Vijay Complex, Shop No-2, Ashoka, 326, MG Road,", "addr:city": "Pune", "addr:state": "Maharashtra", "addr:postcode": "411001", "addr:country": "India", "phones": {"Store": ["8108999252"]}, "email": {"Customer Service": ["info@gangar.in"]}, "website": "https://eyebooknow.in/INWST00171/", "operatingHours": {"Store": "{\"mon\":[\"10:00 AM - 09:00 PM\"],\"tue\":[\"10:00 AM - 09:00 PM\"],\"wed\":[\"10:00 AM - 09:00 PM\"],\"thu\":[\"10:00 AM - 09:00 PM\"],\"fri\":[\"10:00 AM - 09:00 PM\"],\"sat\":[\"10:00 AM - 09:00 PM\"],\"sun\":[\"10:00 AM - 09:00 PM\"]}"}, "chain_id": "23945", "chain_name": "Gangar Eyenation"}, "geometry": {"type": "Point", "coordinates": [73.878803, 18.517211]}},
{"type": "Feature", "id": "An05VEvOZ8ZjO7TOXpH0-GR7W_o=", "properties": {"ref": "a85d59e9a85545f0a0959999868bb432", "@spider": "gangareyenation_dac", "addr:street": "Gangar Opticians Pvt Ltd Building No. (B) 68, 67, Swaminarayan Rd, Sector 1, Shanti Nagar, Mira Road East, Mira Bhayandar,", "addr:city": "Mumbai", "addr:state": "Maharashtra", "addr:postcode": "401107", "addr:country": "India", "phones": {"Store": ["8425999490"]}, "email": {"Customer Service": ["info@gangar.in"]}, "website": "https://eyebooknow.in/INWST00189/", "operatingHours": {"Store": "{\"mon\":[\"10:30 AM - 09:00 PM\"],\"tue\":[\"10:30 AM - 09:00 PM\"],\"wed\":[\"10:30 AM - 09:00 PM\"],\"thu\":[\"10:30 AM - 09:00 PM\"],\"fri\":[\"10:30 AM - 09:00 PM\"],\"sat\":[\"10:30 AM - 09:00 PM\"],\"sun\":[\"10:30 AM - 09:00 PM\"]}"}, "chain_id": "23945", "chain_name": "Gangar Eyenation"}, "geometry": {"type": "Point", "coordinates": [72.858514, 19.281656]}},
{"type": "Feature", "id": "jO-D6n7BefAT5_F9ow8Qo84nb2o=", "properties": {"ref": "2657ba88942543c79577cd3207040e43", "@spider": "gangareyenation_dac", "addr:street": "Gangar Opticians Pvt Ltd, Kapeesh Mall, Shop No 4 & 5, beside Monginis Cake shop Near Station A1, MG Road, Mulund West,", "addr:city": "Mumbai", "addr:state": "Maharashtra", "addr:postcode": "400080", "addr:country": "India", "phones": {"Store": ["9594999634"]}, "email": {"Customer Service": ["info@gangar.in"]}, "website": "https://eyebooknow.in/INWST00148/", "operatingHours": {"Store": "{\"mon\":[\"10:30 AM - 09:00 PM\"],\"tue\":[\"10:30 AM - 09:00 PM\"],\"wed\":[\"10:30 AM - 09:00 PM\"],\"thu\":[\"10:30 AM - 09:00 PM\"],\"fri\":[\"10:30 AM - 09:00 PM\"],\"sat\":[\"10:30 AM - 09:00 PM\"],\"sun\":[\"10:30 AM - 09:00 PM\"]}"}, "chain_id": "23945", "chain_name": "Gangar Eyenation"}, "geometry": {"type": "Point", "coordinates": [72.99717149999992, 19.148036]}},
{"type": "Feature", "id": "AxHDieYXNlHwfzfY08FVdAchTn0=", "properties": {"ref": "c08d3d4f7f57433c847cc2380874c408", "@spider": "gangareyenation_dac", "addr:street": "Gangar Opticians Pvt Ltd, No.103, Ground Floor,Vishwanath Sankul, College Rd, Nashik", "addr:city": "Nashik", "addr:state": "Maharashtra", "addr:postcode": "422005", "addr:country": "India", "phones": {"Store": ["9594999253"]}, "email": {"Customer Service": ["info@gangar.in"]}, "website": "https://eyebooknow.in/INWST00159/", "operatingHours": {"Store": "{\"mon\":[\"10:00 AM - 09:00 PM\"],\"tue\":[\"10:00 AM - 09:00 PM\"],\"wed\":[\"10:00 AM - 09:00 PM\"],\"thu\":[\"10:00 AM - 09:00 PM\"],\"fri\":[\"10:00 AM - 09:00 PM\"],\"sat\":[\"10:00 AM - 09:00 PM\"],\"sun\":[\"10:00 AM - 09:00 PM\"]}"}, "chain_id": "23945", "chain_name": "Gangar Eyenation"}, "geometry": {"type": "Point", "coordinates": [73.767285, 20.005394]}},
{"type": "Feature", "id": "FMdzRbobw_t-c0Rm_lUIe1MEhV8=", "properties": {"ref": "3d402a44baa848dfaafc49ee1119ad6b", "@spider": "gangareyenation_dac", "addr:street": "Gangar Opticians Pvt Ltd, Shop No. 32 & 33, City Pride, Plot No.12 & 13 SDC, Sector 25, Nigdi, Pune, ", "addr:city": "Pune", "addr:state": "Maharashtra", "addr:postcode": "411044", "addr:country": "India", "phones": {"Store": ["9594948610"]}, "email": {"Customer Service": ["info@gangar.in"]}, "website": "https://eyebooknow.in/INWST00172/", "operatingHours": {"Store": "{\"mon\":[\"10:30 AM - 09:00 PM\"],\"tue\":[\"10:30 AM - 09:00 PM\"],\"wed\":[\"10:30 AM - 09:00 PM\"],\"thu\":[\"10:30 AM - 09:00 PM\"],\"fri\":[\"10:30 AM - 09:00 PM\"],\"sat\":[\"10:30 AM - 09:00 PM\"],\"sun\":[\"10:30 AM - 09:00 PM\"]}"}, "chain_id": "23945", "chain_name": "Gangar Eyenation"}, "geometry": {"type": "Point", "coordinates": [73.770977, 18.655398]}},
{"type": "Feature", "id": "vojCsEtn3VwWDMUZcq2bdmIaIBs=", "properties": {"ref": "497b3de6744a454ca883244ccbf1f313", "@spider": "gangareyenation_dac", "addr:street": "Gangar Opticians Pvt Ltd, Shop No.8 & 9, Niharika Shopping Centre, Gladys Alwares Rd, Marg, Thane West, ", "addr:city": "Thane", "addr:state": "Maharashtra", "addr:postcode": "400601", "addr:country": "India", "phones": {"Store": ["9594999633"]}, "email": {"Customer Service": ["info@gangar.in"]}, "website": "https://eyebooknow.in/INWST00176/", "operatingHours": {"Store": "{\"mon\":[\"10:30 AM - 09:00 PM\"],\"tue\":[\"10:30 AM - 09:00 PM\"],\"wed\":[\"10:30 AM - 09:00 PM\"],\"thu\":[\"10:30 AM - 09:00 PM\"],\"fri\":[\"10:30 AM - 09:00 PM\"],\"sat\":[\"10:30 AM - 09:00 PM\"],\"sun\":[\"10:30 AM - 09:00 PM\"]}"}, "chain_id": "23945", "chain_name": "Gangar Eyenation"}, "geometry": {"type": "Point", "coordinates": [72.970292, 19.225417]}},
{"type": "Feature", "id": "5VnX_um2EqYjNkjBiSkbZfcoyNo=", "properties": {"ref": "525fc63c584c4823b2679a32b5fe1d85", "@spider": "gangareyenation_dac", "addr:street": "Gangar Opticians Pvt Ltd, Orion Mall, G6, Ground Floor, near ST Bus Depot, Panvel,", "addr:city": "Navi Mumbai", "addr:state": "Maharashtra", "addr:postcode": "410206", "addr:country": "India", "phones": {"Store": ["8422992618"]}, "email": {"Customer Service": ["info@gangar.in"]}, "website": "https://eyebooknow.in/INWST00162/", "operatingHours": {"Store": "{\"mon\":[\"11:00 AM - 09:30 PM\"],\"tue\":[\"11:00 AM - 09:30 PM\"],\"wed\":[\"11:00 AM - 09:30 PM\"],\"thu\":[\"11:00 AM - 09:30 PM\"],\"fri\":[\"11:00 AM - 09:30 PM\"],\"sat\":[\"11:00 AM - 09:30 PM\"],\"sun\":[\"11:00 AM - 09:30 PM\"]}"}, "chain_id": "23945", "chain_name": "Gangar Eyenation"}, "geometry": {"type": "Point", "coordinates": [73.115769, 18.993189]}},
{"type": "Feature", "id": "VcOj_k5VPIoxS7PvXMaXMT8Pxl8=", "properties": {"ref": "65120ffdebd840ce835948ae00b30368", "@spider": "gangareyenation_dac", "addr:street": "Gangar Opticians Pvt Ltd, Plot 227, Aaspire Pride, MTNL Rd, near Rupali Cinema, Old Panvel, Panvel, ", "addr:city": "Navi Mumbai", "addr:state": "Maharashtra", "addr:postcode": "410206", "addr:country": "India", "phones": {"Store": ["9594999636"]}, "email": {"Customer Service": ["info@gangar.in"]}, "website": "https://eyebooknow.in/INWST00161/", "operatingHours": {"Store": "{\"mon\":[\"10:30 AM - 09:00 PM\"],\"tue\":[\"10:30 AM - 09:00 PM\"],\"wed\":[\"10:30 AM - 09:00 PM\"],\"thu\":[\"10:30 AM - 09:00 PM\"],\"fri\":[\"10:30 AM - 09:00 PM\"],\"sat\":[\"10:30 AM - 09:00 PM\"],\"sun\":[\"10:30 AM - 09:00 PM\"]}"}, "chain_id": "23945", "chain_name": "Gangar Eyenation"}, "geometry": {"type": "Point", "coordinates": [73.015838, 19.018395]}},
{"type": "Feature", "id": "vdlU-lsOT-Rj92wAtyVSlNHIKag=", "properties": {"ref": "c4e785c957fe447cbae493f0747e557b", "@spider": "gangareyenation_dac", "addr:street": "Gangar Opticians Pvt Ltd, Shop No. 5, Bhoomi Allium, Kokane Chowk, Pimple Saudagar, ", "addr:city": "Pune", "addr:state": "Maharashtra", "addr:postcode": "411027", "addr:country": "India", "phones": {"Store": ["9594999614"]}, "email": {"Customer Service": ["info@gangar.in"]}, "website": "https://eyebooknow.in/INWST00131/", "operatingHours": {"Store": "{\"mon\":[\"10:30 AM - 09:00 PM\"],\"tue\":[\"10:30 AM - 09:00 PM\"],\"wed\":[\"10:30 AM - 09:00 PM\"],\"thu\":[\"10:30 AM - 09:00 PM\"],\"fri\":[\"10:30 AM - 09:00 PM\"],\"sat\":[\"10:30 AM - 09:00 PM\"],\"sun\":[\"10:30 AM - 09:00 PM\"]}"}, "chain_id": "23945", "chain_name": "Gangar Eyenation"}, "geometry": {"type": "Point", "coordinates": [74.0620808, 18.7745986]}},
{"type": "Feature", "id": "WUcdWpZmUBUeaNykuF07an8btS4=", "properties": {"ref": "a6c9c0fa71c04868b370acd0e79eef7d", "@spider": "gangareyenation_dac", "addr:street": "Gangar Opticians Pvt Ltd, Block-B, Varanda, Shagun Chowk, Pimpri Area, Shastri Nagar, Pimpri Colony, Pimpri-Chinchwad, ", "addr:city": "Pune", "addr:state": "Maharashtra", "addr:postcode": "411017", "addr:country": "India", "phones": {"Store": ["7276430004 / 8692999712"]}, "email": {"Customer Service": ["info@gangar.in"]}, "website": "https://eyebooknow.in/INWST00170/", "operatingHours": {"Store": "{\"mon\":[\"10:30 AM - 09:00 PM\"],\"tue\":[\"10:30 AM - 09:00 PM\"],\"wed\":[\"10:30 AM - 09:00 PM\"],\"thu\":[\"10:30 AM - 09:00 PM\"],\"fri\":[\"10:30 AM - 09:00 PM\"],\"sat\":[\"10:30 AM - 09:00 PM\"],\"sun\":[\"10:30 AM - 09:00 PM\"]}"}, "chain_id": "23945", "chain_name": "Gangar Eyenation"}, "geometry": {"type": "Point", "coordinates": [73.801832, 18.622024]}},
{"type": "Feature", "id": "divU9fgaGDXhpbpwi6E9tGoAQFQ=", "properties": {"ref": "048bf56175d74b3abafcdc49fdf116d9", "@spider": "gangareyenation_dac", "addr:street": "Gangar Opticians Pvt Ltd, G-3, Ventura, High St, near Aromas Business Park, Hiranandani Gardens, Powai,", "addr:city": "Mumbai", "addr:state": "Maharashtra", "addr:postcode": "400076", "addr:country": "India", "phones": {"Store": ["9594999645"]}, "email": {"Customer Service": ["info@gangar.in"]}, "website": "https://eyebooknow.in/INWST00153/", "operatingHours": {"Store": "{\"mon\":[\"10:30 AM - 09:00 PM\"],\"tue\":[\"10:30 AM - 09:00 PM\"],\"wed\":[\"10:30 AM - 09:00 PM\"],\"thu\":[\"10:30 AM - 09:00 PM\"],\"fri\":[\"10:30 AM - 09:00 PM\"],\"sat\":[\"10:30 AM - 09:00 PM\"],\"sun\":[\"10:30 AM - 09:00 PM\"]}"}, "chain_id": "23945", "chain_name": "Gangar Eyenation"}, "geometry": {"type": "Point", "coordinates": [72.909426, 19.115913]}},
{"type": "Feature", "id": "ocSN_8RqTyFD3-wIUxzMU0o4xvc=", "properties": {"ref": "22cc5c266be14438ac8a4fe089f9a533", "@spider": "gangareyenation_dac", "addr:street": "Gangar Opticians Pvt Ltd, KSP Alexa, Road, opposite Naik Motors, Maruti Mandir, ", "addr:city": "Ratnagiri", "addr:state": "Maharashtra", "addr:postcode": "415612", "addr:country": "India", "phones": {"Store": ["8108170347"]}, "email": {"Customer Service": ["info@gangar.in"]}, "website": "https://eyebooknow.in/INWST00127/", "operatingHours": {"Store": "{\"mon\":[\"10:30 AM - 09:00 PM\"],\"tue\":[\"10:30 AM - 09:00 PM\"],\"wed\":[\"10:30 AM - 09:00 PM\"],\"thu\":[\"10:30 AM - 09:00 PM\"],\"fri\":[\"10:30 AM - 09:00 PM\"],\"sat\":[\"10:30 AM - 09:00 PM\"],\"sun\":[\"10:30 AM - 09:00 PM\"]}"}, "chain_id": "23945", "chain_name": "Gangar Eyenation"}, "geometry": {"type": "Point", "coordinates": [73.295688, 16.991929]}},
{"type": "Feature", "id": "3fjyqvJULTojIzZ3ivaO6830HmI=", "properties": {"ref": "0ed7d9ab6df84e13bbe599449eef7f8b", "@spider": "gangareyenation_dac", "addr:street": "Gangar Opticians Pvt Ltd Plot No, Krishnayan Business Arcade, 524/A, Sangli - Miraj Rd, opposite Zillha Parishad, Sangli,", "addr:city": "Sangli", "addr:state": "Maharashtra", "addr:postcode": "416416", "addr:country": "India", "phones": {"Store": ["8422916033"]}, "email": {"Customer Service": ["info@gangar.in"]}, "website": "https://eyebooknow.in/INWST00173/", "operatingHours": {"Store": "{\"mon\":[\"10:30 AM - 09:00 PM\"],\"tue\":[\"10:30 AM - 09:00 PM\"],\"wed\":[\"10:30 AM - 09:00 PM\"],\"thu\":[\"10:30 AM - 09:00 PM\"],\"fri\":[\"10:30 AM - 09:00 PM\"],\"sat\":[\"10:30 AM - 09:00 PM\"],\"sun\":[\"10:30 AM - 09:00 PM\"]}"}, "chain_id": "23945", "chain_name": "Gangar Eyenation"}, "geometry": {"type": "Point", "coordinates": [74.578708, 16.854569]}},
{"type": "Feature", "id": "YenlJZg-Mb8MqbvMkzB21Ir8LHY=", "properties": {"ref": "4105cf5df5d64170bc37dd6782fa71d4", "@spider": "gangareyenation_dac", "addr:street": "Gangar Opticians Pvt Ltd, Kirti Manor, Swami Vivekananda Rd, Saraswat Nagar, Willingdon, Santacruz West,", "addr:city": "Mumbai", "addr:state": "Maharashtra", "addr:postcode": "400054", "addr:country": "India", "phones": {"Store": ["9594999647"]}, "email": {"Customer Service": ["info@gangar.in"]}, "website": "https://eyebooknow.in/INWST00154/", "operatingHours": {"Store": "{\"mon\":[\"10:15 AM - 08:45 PM\"],\"tue\":[\"10:15 AM - 08:45 PM\"],\"wed\":[\"10:15 AM - 08:45 PM\"],\"thu\":[\"10:15 AM - 08:45 PM\"],\"fri\":[\"10:15 AM - 08:45 PM\"],\"sat\":[\"10:15 AM - 08:45 PM\"],\"sun\":[\"10:15 AM - 08:45 PM\"]}"}, "chain_id": "23945", "chain_name": "Gangar Eyenation"}, "geometry": {"type": "Point", "coordinates": [72.838062, 19.079458]}},
{"type": "Feature", "id": "Y2l4_ov7jD3-8ma3oAfMgm2i8Ig=", "properties": {"ref": "fab9a489019d48dc88aa91603a58c56c", "@spider": "gangareyenation_dac", "addr:street": "Gangar Opticians Pvt Ltd, Shree Ramkrishna Niwas, Shop No. 6 & 7, Seawoods West, Sector 40, Navi Mumbai,", "addr:city": "Navi Mumbai", "addr:state": "Maharashtra", "addr:postcode": "400706", "addr:country": "India", "phones": {"Store": ["9594999637"]}, "email": {"Customer Service": ["info@gangar.in"]}, "website": "https://eyebooknow.in/INWST00163/", "operatingHours": {"Store": "{\"mon\":[\"10:30 AM - 09:00 PM\"],\"tue\":[\"10:30 AM - 09:00 PM\"],\"wed\":[\"10:30 AM - 09:00 PM\"],\"thu\":[\"10:30 AM - 09:00 PM\"],\"fri\":[\"10:30 AM - 09:00 PM\"],\"sat\":[\"10:30 AM - 09:00 PM\"],\"sun\":[\"10:30 AM - 09:00 PM\"]}"}, "chain_id": "23945", "chain_name": "Gangar Eyenation"}, "geometry": {"type": "Point", "coordinates": [73.015838, 19.018395]}},
{"type": "Feature", "id": "O9xtfF0ZNlNTwUnVOBZuD8r8hhU=", "properties": {"ref": "69e23b8d256045e0810d34d7d1ebb9fd", "@spider": "gangareyenation_dac", "addr:street": "Gangar Opticians Pvt Ltd, Sunplaza Complex Lucky Chowk, Murarji Peth,", "addr:city": "Solapur", "addr:state": "Maharashtra", "addr:postcode": "413007", "addr:country": "India", "phones": {"Store": ["8108106133"]}, "email": {"Customer Service": ["info@gangar.in"]}, "website": "https://eyebooknow.in/INWST00174/", "operatingHours": {"Store": "{\"mon\":[\"10:30 AM - 09:00 PM\"],\"tue\":[\"10:30 AM - 09:00 PM\"],\"wed\":[\"10:30 AM - 09:00 PM\"],\"thu\":[\"10:30 AM - 09:00 PM\"],\"fri\":[\"10:30 AM - 09:00 PM\"],\"sat\":[\"10:30 AM - 09:00 PM\"],\"sun\":[\"10:30 AM - 09:00 PM\"]}"}, "chain_id": "23945", "chain_name": "Gangar Eyenation"}, "geometry": {"type": "Point", "coordinates": [75.900625, 17.67521]}},
{"type": "Feature", "id": "G3thOm8MQnAMk_flObyFGx6vSWM=", "properties": {"ref": "96e52f2e9c82434ba5f5453193c933e7", "@spider": "gangareyenation_dac", "addr:street": "Gangar Opticians Pvt Ltd, Leo Tailor, Shop No: 1 , Suvrath Apartment , Shri Bhavani Chowk, Tembhi Naka, Thane West, ", "addr:city": "Thane", "addr:state": "Maharashtra", "addr:postcode": "400602", "addr:country": "India", "phones": {"Store": ["9594999635"]}, "email": {"Customer Service": ["info@gangar.in"]}, "website": "https://eyebooknow.in/INWST00177/", "operatingHours": {"Store": "{\"mon\":[\"10:30 AM - 09:00 PM\"],\"tue\":[\"10:30 AM - 09:00 PM\"],\"wed\":[\"10:30 AM - 09:00 PM\"],\"thu\":[\"10:30 AM - 09:00 PM\"],\"fri\":[\"10:30 AM - 09:00 PM\"],\"sat\":[\"10:30 AM - 09:00 PM\"],\"sun\":[\"10:30 AM - 09:00 PM\"]}"}, "chain_id": "23945", "chain_name": "Gangar Eyenation"}, "geometry": {"type": "Point", "coordinates": [72.95463300000006, 19.207437]}},
{"type": "Feature", "id": "5lrguEy06-xDSjC0Vnvrwo4UzRI=", "properties": {"ref": "93cc5c75eacd4beaaa7548a09cf7d855", "@spider": "gangareyenation_dac", "addr:street": "Gangar Opticians Pvt Ltd, GF–31, Viviana Mall, Eastern Express Hwy, Thane West,", "addr:city": "Thane", "addr:state": "Maharashtra", "addr:postcode": "400606", "addr:country": "India", "phones": {"Store": ["8422992617"]}, "email": {"Customer Service": ["info@gangar.in"]}, "website": "https://eyebooknow.in/INWST00191", "operatingHours": {"Store": "{\"mon\":[\"11:00 AM - 10:00 PM\"],\"tue\":[\"11:00 AM - 10:00 PM\"],\"wed\":[\"11:00 AM - 10:00 PM\"],\"thu\":[\"11:00 AM - 10:00 PM\"],\"fri\":[\"11:00 AM - 10:00 PM\"],\"sat\":[\"11:00 AM - 10:00 PM\"],\"sun\":[\"11:00 AM - 10:00 PM\"]}"}, "chain_id": "23945", "chain_name": "Gangar Eyenation"}, "geometry": {"type": "Point", "coordinates": [72.97183, 19.20921]}},
{"type": "Feature", "id": "OoCvI-TdnWpe6koxoFz1EC19R1I=", "properties": {"ref": "1b3398ab1e194fdb81509d4821aa4d6d", "@spider": "gangareyenation_dac", "addr:street": "Gangar Opticians Pvt Ltd The Walk, Hiranandani Estate, Thane West,", "addr:city": "Thane", "addr:state": "Maharashtra", "addr:postcode": "400607", "addr:country": "India", "phones": {"Store": ["8424039398"]}, "email": {"Customer Service": ["info@gangar.in"]}, "website": "https://eyebooknow.in/INWST00126/", "operatingHours": {"Store": "{\"mon\":[\"10:30 AM - 09:30 PM\"],\"tue\":[\"10:30 AM - 09:30 PM\"],\"wed\":[\"10:30 AM - 09:30 PM\"],\"thu\":[\"10:30 AM - 09:30 PM\"],\"fri\":[\"10:30 AM - 09:30 PM\"],\"sat\":[\"10:30 AM - 09:30 PM\"],\"sun\":[\"10:30 AM - 09:30 PM\"]}"}, "chain_id": "23945", "chain_name": "Gangar Eyenation"}, "geometry": {"type": "Point", "coordinates": [72.984298, 19.255179]}},
{"type": "Feature", "id": "QI69HHD3xmInrNEkd_72W4gaeRQ=", "properties": {"ref": "d33040bb27ba40a4aaa74763a455dea5", "@spider": "gangareyenation_dac", "addr:street": "Gangar Opticians Pvt Ltd, Parshva Padmavati, Shop No.1&2, Sai Nagar Corner, Ambadi Rd, Vasai West, Vasai-Virar,", "addr:city": "Mumbai", "addr:state": "Maharashtra", "addr:postcode": "401202", "addr:country": "India", "phones": {"Store": ["9594999642"]}, "email": {"Customer Service": ["info@gangar.in"]}, "website": "https://eyebooknow.in/INWST00181/", "operatingHours": {"Store": "{\"mon\":[\"10:30 AM - 09:00 PM\"],\"tue\":[\"10:30 AM - 09:00 PM\"],\"wed\":[\"10:30 AM - 09:00 PM\"],\"thu\":[\"10:30 AM - 09:00 PM\"],\"fri\":[\"10:30 AM - 09:00 PM\"],\"sat\":[\"10:30 AM - 09:00 PM\"],\"sun\":[\"10:30 AM - 09:00 PM\"]}"}, "chain_id": "23945", "chain_name": "Gangar Eyenation"}, "geometry": {"type": "Point", "coordinates": [72.828526, 19.382838]}},
{"type": "Feature", "id": "FkfDnlzxtReZJVBDv6SO3kKgt_o=", "properties": {"ref": "b91fd934bc6744a284f91eae225707e9", "@spider": "gangareyenation_dac", "addr:street": "Gangar Opticians Pvt Ltd, Shanti Center Building, Sector 17, Vashi, Navi Mumbai,", "addr:city": "Navi Mumbai", "addr:state": "Maharashtra", "addr:postcode": "400703", "addr:country": "India", "phones": {"Store": ["9594999630"]}, "email": {"Customer Service": ["info@gangar.in"]}, "website": "https://eyebooknow.in/INWST00160/", "operatingHours": {"Store": "{\"mon\":[\"10:00 AM - 09:00 PM\"],\"tue\":[\"10:00 AM - 09:00 PM\"],\"wed\":[\"10:00 AM - 09:00 PM\"],\"thu\":[\"10:00 AM - 09:00 PM\"],\"fri\":[\"10:00 AM - 09:00 PM\"],\"sat\":[\"10:00 AM - 09:00 PM\"],\"sun\":[\"10:00 AM - 09:00 PM\"]}"}, "chain_id": "23945", "chain_name": "Gangar Eyenation"}, "geometry": {"type": "Point", "coordinates": [72.99823259999994, 19.0725692]}},
{"type": "Feature", "id": "3UKngFXzi-7zM60OjLgtviGLVNA=", "properties": {"ref": "899bac8edd5b425f86eaed0ecbdb3cde", "@spider": "gangareyenation_dac", "addr:street": "Gangar Opticians Pvt Ltd, Virar West Skywalk, Doghar Pada, Sheetal Nagar, Virar West,", "addr:city": "Mumbai", "addr:state": "Maharashtra", "addr:postcode": "401303", "addr:country": "India", "phones": {"Store": ["9594999643"]}, "email": {"Customer Service": ["info@gangar.in"]}, "website": "https://eyebooknow.in/INWST00182/", "operatingHours": {"Store": "{\"mon\":[\"10:30 AM - 09:00 PM\"],\"tue\":[\"10:30 AM - 09:00 PM\"],\"wed\":[\"10:30 AM - 09:00 PM\"],\"thu\":[\"10:30 AM - 09:00 PM\"],\"fri\":[\"10:30 AM - 09:00 PM\"],\"sat\":[\"10:30 AM - 09:00 PM\"],\"sun\":[\"10:30 AM - 09:00 PM\"]}"}, "chain_id": "23945", "chain_name": "Gangar Eyenation"}, "geometry": {"type": "Point", "coordinates": [72.807187, 19.451971]}},
{"type": "Feature", "id": "RFRU2IrAMqJ78n3BHES9w6cMv84=", "properties": {"ref": "2809ced084474b05a5f108f837f365c2", "@spider": "gangareyenation_dac", "addr:street": "Gangar Opticians Pvt Ltd, Chinoy Mansion, 162, Warden Rd, near Kemps Corner,", "addr:city": "Mumbai", "addr:state": "Maharashtra", "addr:postcode": "400036", "addr:country": "India", "phones": {"Store": ["8691999107"]}, "email": {"Customer Service": ["info@gangar.in"]}, "website": "https://eyebooknow.in/INWST00144/", "operatingHours": {"Store": "{\"mon\":[\"10:30 AM - 09:00 PM\"],\"tue\":[\"10:30 AM - 09:00 PM\"],\"wed\":[\"10:30 AM - 09:00 PM\"],\"thu\":[\"10:30 AM - 09:00 PM\"],\"fri\":[\"10:30 AM - 09:00 PM\"],\"sat\":[\"10:30 AM - 09:00 PM\"],\"sun\":[\"10:30 AM - 09:00 PM\"]}"}, "chain_id": "23945", "chain_name": "Gangar Eyenation"}, "geometry": {"type": "Point", "coordinates": [72.80455549999999, 18.9647705]}}]}