{"type":"FeatureCollection","features":[{"type": "Feature", "id": "KUVkNx_DlGNF91bfHGcuA-0Kd1k=", "properties": {"ref": "fbd3ee57aa32478a817de1fc7e635104", "@spider": "zara_in_dpa", "addr:full": "DISTRICT CENTRE, SAKET, 843, NEW DELHI, DELHI, 110017, India", "addr:street": "DISTRICT CENTRE, SAKET, 843", "addr:city": "NEW DELHI", "addr:state": "DELHI", "addr:postcode": "110017", "addr:country": "India", "phones": {"Store": ["18003157808"]}, "email": {"Customer Service": ["contact.in@zara.com"]}, "website": "https://www.zara.com/in/", "operatingHours": {"Store": "Tu 11:00-22:00; We 11:00-22:00; Th 11:00-22:00; Fr 11:00-22:00; Sa 11:00-22:00; Su 11:00-22:00; Mo 11:00-22:00"}, "chain_id": "4304", "chain_name": "ZARA"}, "geometry": {"type": "Point", "coordinates": [77.21839, 28.528263000000003]}},
{"type": "Feature", "id": "DCondEMPUV3T20aACHhmitCo-K8=", "properties": {"ref": "dae1797271fd49edad352745146975a2", "@spider": "zara_in_dpa", "addr:full": "NELSON MANDELA MARG, 2, NEW DELHI, DELHI, 110070, India", "addr:street": "NELSON MANDELA MARG, 2", "addr:city": "NEW DELHI", "addr:state": "DELHI", "addr:postcode": "110070", "addr:country": "India", "phones": {"Store": ["18003157808"]}, "email": {"Customer Service": ["contact.in@zara.com"]}, "website": "https://www.zara.com/in/", "operatingHours": {"Store": "Tu 11:00-22:00; We 11:00-22:00; Th 11:00-22:00; Fr 11:00-22:00; Sa 11:00-22:00; Su 11:00-22:00; Mo 11:00-22:00"}, "chain_id": "4304", "chain_name": "ZARA"}, "geometry": {"type": "Point", "coordinates": [77.15561, 28.542748]}},
{"type": "Feature", "id": "-xvPmnWSTlh91aV1dOqIfDiEDBw=", "properties": {"ref": "a836a46306264d2b81aa33cf640aaff3", "@spider": "zara_in_dpa", "addr:full": "NAJAFGARH ROAD, TAGORE GARDEN, SUBHASH NAGAR METRO STATION, S/N, NEW DELHI, DELHI, 110018, India", "addr:street": "NAJAFGARH ROAD, TAGORE GARDEN, SUBHASH NAGAR METRO STATION, S/N", "addr:city": "NEW DELHI", "addr:state": "DELHI", "addr:postcode": "110018", "addr:country": "India", "phones": {"Store": ["18003157808"]}, "email": {"Customer Service": ["contact.in@zara.com"]}, "website": "https://www.zara.com/in/", "operatingHours": {"Store": "Tu 11:00-22:00; We 11:00-22:00; Th 11:00-22:00; Fr 11:00-22:00; Sa 11:00-22:00; Su 11:00-22:00; Mo 11:00-22:00"}, "chain_id": "4304", "chain_name": "ZARA"}, "geometry": {"type": "Point", "coordinates": [77.106383, 28.642386000000002]}},
{"type": "Feature", "id": "WaIto_0tP4yCJIwYJCDzKWMqJkM=", "properties": {"ref": "36503607a6c9467480e5c1bc29db3b68", "@spider": "zara_in_dpa", "addr:full": "PLOT NO  M03 SECTOR 18, S/N, NOIDA, UTTAR PRADESH, 201301, India", "addr:street": "PLOT NO  M03 SECTOR 18, S/N", "addr:city": "NOIDA", "addr:state": "UTTAR PRADESH", "addr:postcode": "201301", "addr:country": "India", "phones": {"Store": ["18003157808"]}, "email": {"Customer Service": ["contact.in@zara.com"]}, "website": "https://www.zara.com/in/", "operatingHours": {"Store": "Tu 11:00-22:00; We 11:00-22:00; Th 11:00-22:00; Fr 11:00-22:00; Sa 11:00-22:00; Su 11:00-22:00; Mo 11:00-22:00"}, "chain_id": "4304", "chain_name": "ZARA"}, "geometry": {"type": "Point", "coordinates": [77.32123, 28.567581]}},
{"type": "Feature", "id": "byDtV2PBZr7RtubZC7OKk4JPTpI=", "properties": {"ref": "ff66a6775b864b95931d427796e45eb8", "@spider": "zara_in_dpa", "addr:full": "AMBIENCE ISLAND, NH-8, GURGAON, HARYANA, 122002, India", "addr:street": "AMBIENCE ISLAND, NH-8", "addr:city": "GURGAON", "addr:state": "HARYANA", "addr:postcode": "122002", "addr:country": "India", "phones": {"Store": ["18003157808"]}, "email": {"Customer Service": ["contact.in@zara.com"]}, "website": "https://www.zara.com/in/", "operatingHours": {"Store": "Tu 11:00-22:00; We 11:00-22:00; Th 11:00-22:00; Fr 11:00-22:00; Sa 11:00-22:00; Su 11:00-22:00; Mo 11:00-22:00"}, "chain_id": "4304", "chain_name": "ZARA"}, "geometry": {"type": "Point", "coordinates": [77.09602100000001, 28.50545]}},
{"type": "Feature", "id": "OS8DrybB-xei0A1cvmxS-eWIyFs=", "properties": {"ref": "940d6102fe464d2fae4115bd0a9debff", "@spider": "zara_in_dpa", "addr:full": "LBS MARG, NEAR KAMANI JUNCTION, KURLA WEST, MUMBAI, MAHARASHTRA, 400070, India", "addr:street": "LBS MARG, NEAR KAMANI JUNCTION, KURLA WEST", "addr:city": "MUMBAI", "addr:state": "MAHARASHTRA", "addr:postcode": "400070", "addr:country": "India", "phones": {"Store": ["18003157808"]}, "email": {"Customer Service": ["contact.in@zara.com"]}, "website": "https://www.zara.com/in/", "operatingHours": {"Store": "Tu 11:00-22:00; We 11:00-22:00; Th 11:00-22:00; Fr 11:00-22:00; Sa 11:00-22:00; Su 11:00-22:00; Mo 11:00-22:00"}, "chain_id": "4304", "chain_name": "ZARA"}, "geometry": {"type": "Point", "coordinates": [72.888904, 19.08659]}},
{"type": "Feature", "id": "sLbUYw2bvVbLssJb-qS66c4ckw8=", "properties": {"ref": "4469e131a0304527b87f56a95c00ba9c", "@spider": "zara_in_dpa", "addr:full": "OBEROI GARDEN CITY, OFF WESTERN EXPRESS HIGHWAY,GOREGAON EAST, DINDOSHI, MUMBAI, MAHARASHTRA, 400063, India", "addr:street": "OBEROI GARDEN CITY, OFF WESTERN EXPRESS HIGHWAY,GOREGAON EAST, DINDOSHI", "addr:city": "MUMBAI", "addr:state": "MAHARASHTRA", "addr:postcode": "400063", "addr:country": "India", "phones": {"Store": ["18003157808"]}, "email": {"Customer Service": ["contact.in@zara.com"]}, "website": "https://www.zara.com/in/", "operatingHours": {"Store": "Tu 11:00-22:00; We 11:00-22:00; Th 11:00-22:00; Fr 11:00-22:00; Sa 11:00-22:00; Su 11:00-22:00; Mo 11:00-22:00"}, "chain_id": "4304", "chain_name": "ZARA"}, "geometry": {"type": "Point", "coordinates": [72.861132, 19.174005]}},
{"type": "Feature", "id": "VkcgiYHVltt3uARQTh7caKQgYXI=", "properties": {"ref": "77ea006c29f34d6baa68e14eb93ffc87", "@spider": "zara_in_dpa", "addr:full": "HIGH STREET PHOENIX, SENAPATI BAPAT MARG, 462, MUMBAI, MAHARASHTRA, 400013, India", "addr:street": "HIGH STREET PHOENIX, SENAPATI BAPAT MARG, 462", "addr:city": "MUMBAI", "addr:state": "MAHARASHTRA", "addr:postcode": "400013", "addr:country": "India", "phones": {"Store": ["18003157808"]}, "email": {"Customer Service": ["contact.in@zara.com"]}, "website": "https://www.zara.com/in/", "operatingHours": {"Store": "Tu 11:00-22:00; We 11:00-22:00; Th 11:00-22:00; Fr 11:00-22:00; Sa 11:00-22:00; Su 11:00-22:00; Mo 11:00-22:00"}, "chain_id": "4304", "chain_name": "ZARA"}, "geometry": {"type": "Point", "coordinates": [72.82482, 18.993949999999998]}},
{"type": "Feature", "id": "u20-j9zLD5JL59_2XVfhmolyPcQ=", "properties": {"ref": "beb011ed68894cffa7f05c2fba34ce05", "@spider": "zara_in_dpa", "addr:full": "LINK ROAD, MALAD WEST, MUMBAI, MAHARASHTRA, 400064, India", "addr:street": "LINK ROAD, MALAD WEST", "addr:city": "MUMBAI", "addr:state": "MAHARASHTRA", "addr:postcode": "400064", "addr:country": "India", "phones": {"Store": ["18003157808"]}, "email": {"Customer Service": ["contact.in@zara.com"]}, "website": "https://www.zara.com/in/", "operatingHours": {"Store": "Tu 11:00-22:00; We 11:00-22:00; Th 11:00-22:00; Fr 11:00-22:00; Sa 11:00-22:00; Su 11:00-22:00; Mo 11:00-22:00"}, "chain_id": "4304", "chain_name": "ZARA"}, "geometry": {"type": "Point", "coordinates": [72.834088, 19.185306]}},
{"type": "Feature", "id": "Av7US6NQw_09pnUy7Pdq7Nt_ga0=", "properties": {"ref": "b517eee7238645348b6078bd1a309306", "@spider": "zara_in_dpa", "addr:full": "VEER NARIMAN ROAD, KALA GHODA, FORT, MUMBAI,, S/N, MUMBAI, MAHARASHTRA, 400001, India", "addr:street": "VEER NARIMAN ROAD, KALA GHODA, FORT, MUMBAI,, S/N", "addr:city": "MUMBAI", "addr:state": "MAHARASHTRA", "addr:postcode": "400001", "addr:country": "India", "phones": {"Store": ["18003157808"]}, "email": {"Customer Service": ["contact.in@zara.com"]}, "website": "https://www.zara.com/in/", "operatingHours": {"Store": "Tu 11:00-21:30; We 11:00-21:30; Th 11:00-21:30; Fr 11:00-21:30; Sa 11:00-22:00; Su 11:00-22:00; Mo 11:00-21:30"}, "chain_id": "4304", "chain_name": "ZARA"}, "geometry": {"type": "Point", "coordinates": [72.833842, 18.941497]}},
{"type": "Feature", "id": "JDcuyEv1r9DpBTn1vOKupMb11Ps=", "properties": {"ref": "7e1153bb7ade45579a15002e17a1c8a1", "@spider": "zara_in_dpa", "addr:full": "EASTERN EXPRESS HIGHWAY, LAXMI NAGAR, THANE, MAHARASHTRA, 400601, India", "addr:street": "EASTERN EXPRESS HIGHWAY, LAXMI NAGAR", "addr:city": "THANE", "addr:state": "MAHARASHTRA", "addr:postcode": "400601", "addr:country": "India", "phones": {"Store": ["18003157808"]}, "email": {"Customer Service": ["contact.in@zara.com"]}, "website": "https://www.zara.com/in/", "operatingHours": {"Store": "Tu 11:00-22:00; We 11:00-22:00; Th 11:00-22:00; Fr 11:00-22:00; Sa 11:00-22:00; Su 11:00-22:00; Mo 11:00-22:00"}, "chain_id": "4304", "chain_name": "ZARA"}, "geometry": {"type": "Point", "coordinates": [72.971228, 19.208959]}},
{"type": "Feature", "id": "4CYTX5QG42bnYdfUUQz2p5xGsaE=", "properties": {"ref": "41c007bfe3e94b0bbf8c9b5ff9687158", "@spider": "zara_in_dpa", "addr:full": "BRIGADE GATEWAY, 26/1, DR. RAJKUMAR ROAD, MALLESHWARAM WEST, S/N, BANGALORE, KARNATAKA, 560055, India", "addr:street": "BRIGADE GATEWAY, 26/1, DR. RAJKUMAR ROAD, MALLESHWARAM WEST, S/N", "addr:city": "BANGALORE", "addr:state": "KARNATAKA", "addr:postcode": "560055", "addr:country": "India", "phones": {"Store": ["18003157808"]}, "email": {"Customer Service": ["contact.in@zara.com"]}, "website": "https://www.zara.com/in/", "operatingHours": {"Store": "Tu 11:00-21:30; We 11:00-21:30; Th 11:00-21:30; Fr 11:00-21:30; Sa 11:00-22:00; Su 11:00-22:00; Mo 11:00-21:30"}, "chain_id": "4304", "chain_name": "ZARA"}, "geometry": {"type": "Point", "coordinates": [77.555108, 13.01112]}},
{"type": "Feature", "id": "_rUxC-wzyPVH0tDCkCTUobnKMoc=", "properties": {"ref": "5a0e36770d6e42eea9a440a7eea465e1", "@spider": "zara_in_dpa", "addr:full": "KANAKAPURA RD, ANJANADRI LAYOUT, KONANAKUNTE, S/N, BANGALORE, KARNATAKA, 560062, India", "addr:street": "KANAKAPURA RD, ANJANADRI LAYOUT, KONANAKUNTE, S/N", "addr:city": "BANGALORE", "addr:state": "KARNATAKA", "addr:postcode": "560062", "addr:country": "India", "phones": {"Store": ["18003157808"]}, "email": {"Customer Service": ["contact.in@zara.com"]}, "website": "https://www.zara.com/in/", "operatingHours": {"Store": "Tu 11:00-21:30; We 11:00-21:30; Th 11:00-21:30; Fr 11:00-21:30; Sa 11:00-22:00; Su 11:00-22:00; Mo 11:00-21:30"}, "chain_id": "4304", "chain_name": "ZARA"}, "geometry": {"type": "Point", "coordinates": [77.56276614, 12.8883718]}},
{"type": "Feature", "id": "vPMr7Djqz9sSLa4D5eV4nGQvfxk=", "properties": {"ref": "cff23a37f0c046feb38e0053dc82b4bf", "@spider": "zara_in_dpa", "addr:full": "WHITEFIELD ROAD, MAHADEVPURA, BANGALORE, KARNATAKA, 560048, India", "addr:street": "WHITEFIELD ROAD, MAHADEVPURA", "addr:city": "BANGALORE", "addr:state": "KARNATAKA", "addr:postcode": "560048", "addr:country": "India", "phones": {"Store": ["18003157808"]}, "email": {"Customer Service": ["contact.in@zara.com"]}, "website": "https://www.zara.com/in/", "operatingHours": {"Store": "Tu 11:00-21:30; We 11:00-21:30; Th 11:00-21:30; Fr 11:00-21:30; Sa 11:00-22:00; Su 11:00-22:00; Mo 11:00-21:30"}, "chain_id": "4304", "chain_name": "ZARA"}, "geometry": {"type": "Point", "coordinates": [77.696235, 12.997052]}},
{"type": "Feature", "id": "r3RxfBeBfzguzizppfchHrYd10o=", "properties": {"ref": "98154593089a459a865a397780696ac8", "@spider": "zara_in_dpa", "addr:full": "PRINCE ANWAR SHAH ROAD, 375, KOLKATA, WEST BENGAL, 700068, India", "addr:street": "PRINCE ANWAR SHAH ROAD, 375", "addr:city": "KOLKATA", "addr:state": "WEST BENGAL", "addr:postcode": "700068", "addr:country": "India", "phones": {"Store": ["18003157808"]}, "email": {"Customer Service": ["contact.in@zara.com"]}, "website": "https://www.zara.com/in/", "operatingHours": {"Store": "Tu 11:00-21:30; We 11:00-21:30; Th 11:00-21:30; Fr 11:00-22:00; Sa 11:00-22:00; Su 11:00-22:00; Mo 11:00-21:30"}, "chain_id": "4304", "chain_name": "ZARA"}, "geometry": {"type": "Point", "coordinates": [88.361626, 22.501734]}},
{"type": "Feature", "id": "huccVBl-9n6EWHVjoWrCMn491yg=", "properties": {"ref": "44ca390abdec477a933552e1fc28549e", "@spider": "zara_in_dpa", "addr:full": "PLOT NO. 142, VELACHERY ROAD, INDIRA GANDHI NAGAR, VELACHERY, CHENNAI, TAMIL NADU, 600042, India", "addr:street": "PLOT NO. 142, VELACHERY ROAD, INDIRA GANDHI NAGAR, VELACHERY", "addr:city": "CHENNAI", "addr:state": "TAMIL NADU", "addr:postcode": "600042", "addr:country": "India", "phones": {"Store": ["18003157808"]}, "email": {"Customer Service": ["contact.in@zara.com"]}, "website": "https://www.zara.com/in/", "operatingHours": {"Store": "Tu 11:00-21:30; We 11:00-21:30; Th 11:00-21:30; Fr 11:00-21:30; Sa 11:00-22:00; Su 11:00-22:00; Mo 11:00-21:30"}, "chain_id": "4304", "chain_name": "ZARA"}, "geometry": {"type": "Point", "coordinates": [80.216689, 12.991003]}},
{"type": "Feature", "id": "w5_pQw8m6dcK1CRET3oDy8EpwSQ=", "properties": {"ref": "2603f7315b8c4a7a882c7de70918f943", "@spider": "zara_in_dpa", "addr:full": "KUKKATPALLY VILLAGE, BALA NAGAR MANDAL,RANGA REDDY DISTRICT, 1009, HYDERABAD, TELANGANA, 500072, India", "addr:street": "KUKKATPALLY VILLAGE, BALA NAGAR MANDAL,RANGA REDDY DISTRICT, 1009", "addr:city": "HYDERABAD", "addr:state": "TELANGANA", "addr:postcode": "500072", "addr:country": "India", "phones": {"Store": ["18003157808"]}, "email": {"Customer Service": ["contact.in@zara.com"]}, "website": "https://www.zara.com/in/", "operatingHours": {"Store": "Tu 11:00-21:30; We 11:00-21:30; Th 11:00-21:30; Fr 11:00-21:30; Sa 11:00-22:00; Su 11:00-22:00; Mo 11:00-21:30"}, "chain_id": "4304", "chain_name": "ZARA"}, "geometry": {"type": "Point", "coordinates": [78.389184, 17.4841309]}},
{"type": "Feature", "id": "kTWomFSayju3waBz3jJB1aTVkB4=", "properties": {"ref": "8da18b1682204629b9df8f39776ae723", "@spider": "zara_in_dpa", "addr:full": "SARKHEJ - GANDHINAGAR HWY, S/N, AHMEDABAD, GUJARAT, 380054, India", "addr:street": "SARKHEJ - GANDHINAGAR HWY, S/N", "addr:city": "AHMEDABAD", "addr:state": "GUJARAT", "addr:postcode": "380054", "addr:country": "India", "phones": {"Store": ["1800 315 7808"]}, "email": {"Customer Service": ["contact.in@zara.com"]}, "website": "https://www.zara.com/in/", "operatingHours": {"Store": "Tu 11:00-22:00; We 11:00-22:00; Th 11:00-22:00; Fr 11:00-22:00; Sa 11:00-22:00; Su 11:00-22:00; Mo 11:00-22:00"}, "chain_id": "4304", "chain_name": "ZARA"}, "geometry": {"type": "Point", "coordinates": [72.52082, 23.05742]}},
{"type": "Feature", "id": "pNjSJgq0lshNO4f8PERpO17IhmI=", "properties": {"ref": "787b1cfb4edf4e8dafff6368f445d8f1", "@spider": "zara_in_dpa", "addr:full": "CLOVER PARK, VIMAN NAGAR ROAD, PUNE, MAHARASHTRA, 411014, India", "addr:street": "CLOVER PARK, VIMAN NAGAR ROAD", "addr:city": "PUNE", "addr:state": "MAHARASHTRA", "addr:postcode": "411014", "addr:country": "India", "phones": {"Store": ["18003157808"]}, "email": {"Customer Service": ["contact.in@zara.com"]}, "website": "https://www.zara.com/in/", "operatingHours": {"Store": "Tu 11:00-21:30; We 11:00-21:30; Th 11:00-21:30; Fr 11:00-21:30; Sa 11:00-22:00; Su 11:00-22:00; Mo 11:00-21:30"}, "chain_id": "4304", "chain_name": "ZARA"}, "geometry": {"type": "Point", "coordinates": [73.916696, 18.562272]}},
{"type": "Feature", "id": "LzfOsfbLNf6Zp_6pdCqa76yyctg=", "properties": {"ref": "a09877af7a03493aabee7b03a162d342", "@spider": "zara_in_dpa", "addr:full": "SENAPATI BAPAT ROAD, SHIVAJINAGAR, PUNE, MAHARASHTRA, 411005, India", "addr:street": "SENAPATI BAPAT ROAD, SHIVAJINAGAR", "addr:city": "PUNE", "addr:state": "MAHARASHTRA", "addr:postcode": "411005", "addr:country": "India", "phones": {"Store": ["18003157808"]}, "email": {"Customer Service": ["contact.in@zara.com"]}, "website": "https://www.zara.com/in/", "operatingHours": {"Store": "Tu 11:00-21:30; We 11:00-21:30; Th 11:00-21:30; Fr 11:00-21:30; Sa 11:00-22:00; Su 11:00-22:00; Mo 11:00-21:30"}, "chain_id": "4304", "chain_name": "ZARA"}, "geometry": {"type": "Point", "coordinates": [73.91674, 18.562424]}},
{"type": "Feature", "id": "NBrztGZPji10wjj_2TtmwDbDaoM=", "properties": {"ref": "63fb28faf6ef41c3a6c2922ee643d7cc", "@spider": "zara_in_dpa", "addr:full": "JAWAHARLAL NEHRU MARG, MALVIYA NAGAR, JAIPUR, RAJASTHAN, 302017, India", "addr:street": "JAWAHARLAL NEHRU MARG, MALVIYA NAGAR", "addr:city": "JAIPUR", "addr:state": "RAJASTHAN", "addr:postcode": "302017", "addr:country": "India", "phones": {"Store": ["18003157808"]}, "email": {"Customer Service": ["contact.in@zara.com"]}, "website": "https://www.zara.com/in/", "operatingHours": {"Store": "Tu 11:00-21:30; We 11:00-21:30; Th 11:00-21:30; Fr 11:00-21:30; Sa 11:00-21:30; Su 11:00-21:30; Mo 18:00-21:30"}, "chain_id": "4304", "chain_name": "ZARA"}, "geometry": {"type": "Point", "coordinates": [75.805278, 26.853288]}},
{"type": "Feature", "id": "fnz4AuXe1ENWvsW4yzwe2xPNNcQ=", "properties": {"ref": "036c03ca538a4d0b9f6e9b1f269b4fda", "@spider": "zara_in_dpa", "addr:full": "INDUSTRIAL & BUSINESS PARK,PHASE- I, 178-178A, CHANDIGARH, CHANDIGARH, 160002, India", "addr:street": "INDUSTRIAL & BUSINESS PARK,PHASE- I, 178-178A", "addr:city": "CHANDIGARH", "addr:state": "CHANDIGARH", "addr:postcode": "160002", "addr:country": "India", "phones": {"Store": ["18003157808"]}, "email": {"Customer Service": ["contact.in@zara.com"]}, "website": "https://www.zara.com/in/", "operatingHours": {"Store": "Tu 11:00-21:30; We 11:00-21:30; Th 11:00-21:30; Fr 11:00-21:30; Sa 11:00-22:00; Su 11:00-22:00; Mo 11:00-21:30"}, "chain_id": "4304", "chain_name": "ZARA"}, "geometry": {"type": "Point", "coordinates": [76.800704, 30.706054]}},
{"type": "Feature", "id": "j-xFpHqxb6LuVnMm3Hyo5PQ7Wyk=", "properties": {"ref": "951cee1c4686400d81d0cc9510623e78", "@spider": "zara_in_dpa", "addr:full": "DUMAS ROAD, MAGDALLA, S/N, SURAT, GUJARAT, 395007, India", "addr:street": "DUMAS ROAD, MAGDALLA, S/N", "addr:city": "SURAT", "addr:state": "GUJARAT", "addr:postcode": "395007", "addr:country": "India", "phones": {"Store": ["18003157808"]}, "email": {"Customer Service": ["contact.in@zara.com"]}, "website": "https://www.zara.com/in/", "operatingHours": {"Store": "Tu 11:00-21:30; We 11:00-21:30; Th 11:00-21:30; Fr 11:00-22:00; Sa 11:00-21:30; Su 11:00-21:30; Mo 11:00-21:30"}, "chain_id": "4304", "chain_name": "ZARA"}, "geometry": {"type": "Point", "coordinates": [72.7571, 21.1457]}},
{"type": "Feature", "id": "SK69wuJIEmKVokcAIR1oNDIYFU0=", "properties": {"ref": "fba58cbf4e554faeb5e93f0c66971107", "@spider": "zara_in_dpa", "addr:full": "PRINCE ANWAR SHAH ROAD, 375, KOLKATA, WEST BENGAL, 700068, India", "addr:street": "PRINCE ANWAR SHAH ROAD, 375", "addr:city": "KOLKATA", "addr:state": "WEST BENGAL", "addr:postcode": "700068", "addr:country": "India", "phones": {"Store": ["18003157808"]}, "email": {"Customer Service": ["contact.in@zara.com"]}, "website": "https://www.zara.com/in/", "operatingHours": {"Store": "Tu 11:00-21:30; We 11:00-21:30; Th 11:00-21:30; Fr 11:00-22:00; Sa 11:00-22:00; Su 11:00-22:00; Mo 11:00-21:30"}, "chain_id": "4304", "chain_name": "ZARA"}, "geometry": {"type": "Point", "coordinates": [88.361626, 22.501734]}}]}